ONEWEB-0607             
1 54671U 22166AF  25101.88323097  .00000073  00000+0  14604-3 0  9996
2 54671  87.9292 329.9759 0001964  84.1642 275.9716 13.21824671114560
ONEWEB-0608             
1 54672U 22166AG  25101.66244981  .00000087  00000+0  17908-3 0  9992
2 54672  87.9273 330.0220 0002202  91.5277 268.6109 13.21824715114540
ONEWEB-0610             
1 54673U 22166AH  25101.87061281  .00000063  00000+0  12019-3 0  9998
2 54673  87.9292 329.9974 0002187  91.7508 268.3877 13.21825559114474
ONEWEB-0611             
1 54674U 22166AJ  25101.86430772  .00000018  00000+0  11965-4 0  9993
2 54674  87.9291 329.9959 0001625  76.9344 283.1972 13.21824369114464
ONEWEB-0612             
1 54675U 22166AK  25101.87691900  .00000044  00000+0  74883-4 0  9994
2 54675  87.9290 329.9719 0001988  86.8032 273.3329 13.21825413114451
ONEWEB-0615             
1 54676U 22166AL  25101.93369071  .00000030  00000+0  41383-4 0  9997
2 54676  87.9290 329.9867 0002070  81.8449 278.2920 13.21825526114474
ONEWEB-0655             
1 54677U 22166AM  25101.90685572 -.00003244  00000+0 -78879-2 0  9992
2 54677  87.9285 329.9953 0002120  75.5893 284.5476 13.21839497114461
ONEWEB-0659             
1 54678U 22166AN  25101.92422799  .00000012  00000+0 -20479-5 0  9990
2 54678  87.9288 329.9949 0001645  85.1433 274.9889 13.21825587114554
